[{"OBJECT_NAME":"STARLINK-2731","OBJECT_ID":"2021-044P","EPOCH":"2026-03-09T12:02:24.586944","MEAN_MOTION":15.30216557,"ECCENTRICITY":0.0001669,"INCLINATION":53.1608,"RA_OF_ASC_NODE":114.7581,"ARG_OF_PERICENTER":81.5472,"MEAN_ANOMALY":278.5718,"EPHEMERIS_TYPE":0,"CLASSIFICATION_TYPE":"U","NORAD_CAT_ID":48651,"ELEMENT_SET_NO":999,"REV_AT_EPOCH":26379,"BSTAR":0.00028894491,"MEAN_MOTION_DOT":8.212e-5,"MEAN_MOTION_DDOT":0},{"OBJECT_NAME":"OBJECT BD","OBJECT_ID":"2025-313BD","EPOCH":"2026-03-09T15:06:44.992224","MEAN_MOTION":15.3000236,"ECCENTRICITY":0.00072867,"INCLINATION":97.397,"RA_OF_ASC_NODE":145.285,"ARG_OF_PERICENTER":333.4514,"MEAN_ANOMALY":26.6352,"EPHEMERIS_TYPE":0,"CLASSIFICATION_TYPE":"U","NORAD_CAT_ID":67299,"ELEMENT_SET_NO":999,"REV_AT_EPOCH":1083,"BSTAR":0.0027633805,"MEAN_MOTION_DOT":0.0008101,"MEAN_MOTION_DDOT":0}]
